{"type": "FeatureCollection", "features": [{"type": "Feature", "properties": {"norad_id": 50032, "name": "COSMOS 1408 DEB", "group": "cosmos-1408-debris", "lat": 36.93743502991287, "lon": 58.852820700018235, "alt_km": 436.07329200950153, "timestamp": "2025-12-17T21:39:45.958282+00:00", "meta": {"OBJECT_NAME": "COSMOS 1408 DEB", "OBJECT_ID": "1982-092RU", "EPOCH": "2025-12-17T15:17:12.291648", "MEAN_MOTION": 15.45742916, "ECCENTRICITY": 0.00157122, "INCLINATION": 82.5644, "RA_OF_ASC_NODE": 53.49, "ARG_OF_PERICENTER": 190.1277, "MEAN_ANOMALY": 169.9658, "EPHEMERIS_TYPE": 0, "CLASSIFICATION_TYPE": "U", "NORAD_CAT_ID": 50032, "ELEMENT_SET_NO": 999, "REV_AT_EPOCH": 22679, "BSTAR": 8.9097022e-05, "MEAN_MOTION_DOT": 4.368e-05, "MEAN_MOTION_DDOT": 0}, "tle": {"line1": "1 50032U 82092RU  25351.63694782  .00004368  00000+0  89097-4 0  9999", "line2": "2 50032  82.5644  53.4900 0015712 190.1277 169.9658 15.45742916226799"}}, "geometry": {"type": "Point", "coordinates": [58.852820700018235, 36.93743502991287]}}, {"type": "Feature", "properties": {"norad_id": 50058, "name": "COSMOS 1408 DEB", "group": "cosmos-1408-debris", "lat": -43.13307318035575, "lon": -109.0812439825152, "alt_km": 390.34977097442516, "timestamp": "2025-12-17T21:39:45.958299+00:00", "meta": {"OBJECT_NAME": "COSMOS 1408 DEB", "OBJECT_ID": "1982-092SW", "EPOCH": "2025-12-17T14:34:15.421152", "MEAN_MOTION": 15.64394944, "ECCENTRICITY": 0.00162208, "INCLINATION": 82.6132, "RA_OF_ASC_NODE": 64.2468, "ARG_OF_PERICENTER": 82.2196, "MEAN_ANOMALY": 278.0904, "EPHEMERIS_TYPE": 0, "CLASSIFICATION_TYPE": "U", "NORAD_CAT_ID": 50058, "ELEMENT_SET_NO": 999, "REV_AT_EPOCH": 22880, "BSTAR": 0.00027404563, "MEAN_MOTION_DOT": 0.00026488, "MEAN_MOTION_DDOT": 0}, "tle": {"line1": "1 50058U 82092SW  25351.60712293  .00026488  00000+0  27405-3 0  9993", "line2": "2 50058  82.6132  64.2468 0016220  82.2196 278.0904 15.64394944228800"}}, "geometry": {"type": "Point", "coordinates": [-109.0812439825152, -43.13307318035575]}}, {"type": "Feature", "properties": {"norad_id": 50404, "name": "COSMOS 1408 DEB", "group": "cosmos-1408-debris", "lat": 55.949162883071224, "lon": 18.04712174947336, "alt_km": 453.42683082304757, "timestamp": "2025-12-17T21:39:45.958311+00:00", "meta": {"OBJECT_NAME": "COSMOS 1408 DEB", "OBJECT_ID": "1982-092ADS", "EPOCH": "2025-12-17T14:46:14.485152", "MEAN_MOTION": 15.14536592, "ECCENTRICITY": 0.01700101, "INCLINATION": 82.2038, "RA_OF_ASC_NODE": 210.0386, "ARG_OF_PERICENTER": 182.1988, "MEAN_ANOMALY": 177.852, "EPHEMERIS_TYPE": 0, "CLASSIFICATION_TYPE": "U", "NORAD_CAT_ID": 50404, "ELEMENT_SET_NO": 999, "REV_AT_EPOCH": 21267, "BSTAR": 0.0025473712, "MEAN_MOTION_DOT": 0.0006811, "MEAN_MOTION_DDOT": 0}, "tle": {"line1": "1 50404U 82092ADS 25351.61544543  .00068110  00000+0  25474-2 0  9991", "line2": "2 50404  82.2038 210.0386 0170010 182.1988 177.8520 15.14536592212673"}}, "geometry": {"type": "Point", "coordinates": [18.04712174947336, 55.949162883071224]}}, {"type": "Feature", "properties": {"norad_id": 50621, "name": "COSMOS 1408 DEB", "group": "cosmos-1408-debris", "lat": 76.69937586640152, "lon": -144.6999170018006, "alt_km": 372.7730492960409, "timestamp": "2025-12-17T21:39:45.958321+00:00", "meta": {"OBJECT_NAME": "COSMOS 1408 DEB", "OBJECT_ID": "1982-092ALR", "EPOCH": "2025-12-17T13:31:04.834560", "MEAN_MOTION": 15.56911139, "ECCENTRICITY": 0.00289802, "INCLINATION": 82.5704, "RA_OF_ASC_NODE": 69.1587, "ARG_OF_PERICENTER": 134.8097, "MEAN_ANOMALY": 225.5522, "EPHEMERIS_TYPE": 0, "CLASSIFICATION_TYPE": "U", "NORAD_CAT_ID": 50621, "ELEMENT_SET_NO": 999, "REV_AT_EPOCH": 22325, "BSTAR": 0.00030465128, "MEAN_MOTION_DOT": 0.00022403, "MEAN_MOTION_DDOT": 0}, "tle": {"line1": "1 50621U 82092ALR 25351.56325040  .00022403  00000+0  30465-3 0  9997", "line2": "2 50621  82.5704  69.1587 0028980 134.8097 225.5522 15.56911139223255"}}, "geometry": {"type": "Point", "coordinates": [-144.6999170018006, 76.69937586640152]}}]}